CCSDS_OMM_VERS = 2.0
CREATION_DATE  = 
ORIGINATOR     = 

OBJECT_NAME    = STARLINK-1635
OBJECT_ID      = 2020-057BH
CENTER_NAME    = EARTH
REF_FRAME      = TEME
TIME_SYSTEM    = UTC
MEAN_ELEMENT_THEORY = SGP/SGP4

EPOCH          = 2020-09-09T06:00:00.999648
MEAN_MOTION    = 15.66296746
ECCENTRICITY   = .0001216
INCLINATION    = 53.0001
RA_OF_ASC_NODE = 333.6195
ARG_OF_PERICENTER = 62.7862
MEAN_ANOMALY   = 250.0635

EPHEMERIS_TYPE = 0
CLASSIFICATION_TYPE = U
NORAD_CAT_ID   = 46172
ELEMENT_SET_NO = 999
REV_AT_EPOCH   = 182
BSTAR          = .23557E-3
MEAN_MOTION_DOT = 2.4338E-4
MEAN_MOTION_DDOT = 0

CCSDS_OMM_VERS = 2.0
CREATION_DATE  = 
ORIGINATOR     = 

OBJECT_NAME    = STARLINK-1640
OBJECT_ID      = 2020-057BJ
CENTER_NAME    = EARTH
REF_FRAME      = TEME
TIME_SYSTEM    = UTC
MEAN_ELEMENT_THEORY = SGP/SGP4

EPOCH          = 2020-09-09T12:00:00.999648
MEAN_MOTION    = 15.62740782
ECCENTRICITY   = .0001501
INCLINATION    = 53.0020
RA_OF_ASC_NODE = 332.7242
ARG_OF_PERICENTER = 64.1551
MEAN_ANOMALY   = 58.8581

EPHEMERIS_TYPE = 0
CLASSIFICATION_TYPE = U
NORAD_CAT_ID   = 46173
ELEMENT_SET_NO = 999
REV_AT_EPOCH   = 412
BSTAR          = -.34699E-4
MEAN_MOTION_DOT = -3.709E-5
MEAN_MOTION_DDOT = 0

CCSDS_OMM_VERS = 2.0
CREATION_DATE  = 
ORIGINATOR     = 

OBJECT_NAME    = STARLINK-1641
OBJECT_ID      = 2020-057BK
CENTER_NAME    = EARTH
REF_FRAME      = TEME
TIME_SYSTEM    = UTC
MEAN_ELEMENT_THEORY = SGP/SGP4

EPOCH          = 2020-09-09T12:00:00.999648
MEAN_MOTION    = 15.59597763
ECCENTRICITY   = .0001611
INCLINATION    = 52.9999
RA_OF_ASC_NODE = 332.7719
ARG_OF_PERICENTER = 43.0030
MEAN_ANOMALY   = 69.1367

EPHEMERIS_TYPE = 0
CLASSIFICATION_TYPE = U
NORAD_CAT_ID   = 46174
ELEMENT_SET_NO = 999
REV_AT_EPOCH   = 412
BSTAR          = -.14415E-1
MEAN_MOTION_DOT = -1.063683E-2
MEAN_MOTION_DDOT = 0

CCSDS_OMM_VERS = 2.0
CREATION_DATE  = 
ORIGINATOR     = 

OBJECT_NAME    = FALCON 9 DEB
OBJECT_ID      = 2020-057BL
CENTER_NAME    = EARTH
REF_FRAME      = TEME
TIME_SYSTEM    = UTC
MEAN_ELEMENT_THEORY = SGP/SGP4

EPOCH          = 2020-09-09T10:35:45.384864
MEAN_MOTION    = 16.10922373
ECCENTRICITY   = .0065216
INCLINATION    = 52.9873
RA_OF_ASC_NODE = 328.7953
ARG_OF_PERICENTER = 123.2989
MEAN_ANOMALY   = 237.4313

EPHEMERIS_TYPE = 0
CLASSIFICATION_TYPE = U
NORAD_CAT_ID   = 46175
ELEMENT_SET_NO = 999
REV_AT_EPOCH   = 351
BSTAR          = .34406E-3
MEAN_MOTION_DOT = 4.9988E-3
MEAN_MOTION_DDOT = .11608E-4

CCSDS_OMM_VERS = 2.0
CREATION_DATE  = 
ORIGINATOR     = 

OBJECT_NAME    = FALCON 9 DEB
OBJECT_ID      = 2020-057BM
CENTER_NAME    = EARTH
REF_FRAME      = TEME
TIME_SYSTEM    = UTC
MEAN_ELEMENT_THEORY = SGP/SGP4

EPOCH          = 2020-09-08T16:39:01.586304
MEAN_MOTION    = 16.11659453
ECCENTRICITY   = .0067346
INCLINATION    = 52.9899
RA_OF_ASC_NODE = 332.6936
ARG_OF_PERICENTER = 118.7771
MEAN_ANOMALY   = 242.0049

EPHEMERIS_TYPE = 0
CLASSIFICATION_TYPE = U
NORAD_CAT_ID   = 46176
ELEMENT_SET_NO = 999
REV_AT_EPOCH   = 339
BSTAR          = .39244E-3
MEAN_MOTION_DOT = 6.1965E-3
MEAN_MOTION_DDOT = .11629E-4

CCSDS_OMM_VERS = 2.0
CREATION_DATE  = 
ORIGINATOR     = 

OBJECT_NAME    = FALCON 9 DEB
OBJECT_ID      = 2020-057BN
CENTER_NAME    = EARTH
REF_FRAME      = TEME
TIME_SYSTEM    = UTC
MEAN_ELEMENT_THEORY = SGP/SGP4

EPOCH          = 2020-09-09T10:56:43.901952
MEAN_MOTION    = 16.20461477
ECCENTRICITY   = .0050075
INCLINATION    = 52.9899
RA_OF_ASC_NODE = 328.1531
ARG_OF_PERICENTER = 122.5576
MEAN_ANOMALY   = 238.0312

EPHEMERIS_TYPE = 0
CLASSIFICATION_TYPE = U
NORAD_CAT_ID   = 46177
ELEMENT_SET_NO = 999
REV_AT_EPOCH   = 352
BSTAR          = .43495E-3
MEAN_MOTION_DOT = 1.186455E-2
MEAN_MOTION_DDOT = .11838E-4

CCSDS_OMM_VERS = 2.0
CREATION_DATE  = 
ORIGINATOR     = 

OBJECT_NAME    = FALCON 9 DEB
OBJECT_ID      = 2020-057BP
CENTER_NAME    = EARTH
REF_FRAME      = TEME
TIME_SYSTEM    = UTC
MEAN_ELEMENT_THEORY = SGP/SGP4

EPOCH          = 2020-09-09T10:26:02.717952
MEAN_MOTION    = 16.25900021
ECCENTRICITY   = .0038250
INCLINATION    = 52.9906
RA_OF_ASC_NODE = 328.0102
ARG_OF_PERICENTER = 118.8901
MEAN_ANOMALY   = 241.5985

EPHEMERIS_TYPE = 0
CLASSIFICATION_TYPE = U
NORAD_CAT_ID   = 46178
ELEMENT_SET_NO = 999
REV_AT_EPOCH   = 352
BSTAR          = .46562E-3
MEAN_MOTION_DOT = 1.839457E-2
MEAN_MOTION_DDOT = .11972E-4

CCSDS_OMM_VERS = 2.0
CREATION_DATE  = 
ORIGINATOR     = 

OBJECT_NAME    = SKYSAT-C17
OBJECT_ID      = 2020-057BQ
CENTER_NAME    = EARTH
REF_FRAME      = TEME
TIME_SYSTEM    = UTC
MEAN_ELEMENT_THEORY = SGP/SGP4

EPOCH          = 2020-09-09T10:51:30.813408
MEAN_MOTION    = 15.70628662
ECCENTRICITY   = .0011807
INCLINATION    = 53.0017
RA_OF_ASC_NODE = 331.8988
ARG_OF_PERICENTER = 30.1588
MEAN_ANOMALY   = 330.0106

EPHEMERIS_TYPE = 0
CLASSIFICATION_TYPE = U
NORAD_CAT_ID   = 46179
ELEMENT_SET_NO = 999
REV_AT_EPOCH   = 306
BSTAR          = .56780E-4
MEAN_MOTION_DOT = 6.568E-5
MEAN_MOTION_DDOT = 0

CCSDS_OMM_VERS = 2.0
CREATION_DATE  = 
ORIGINATOR     = 

OBJECT_NAME    = SKYSAT-C18
OBJECT_ID      = 2020-057BR
CENTER_NAME    = EARTH
REF_FRAME      = TEME
TIME_SYSTEM    = UTC
MEAN_ELEMENT_THEORY = SGP/SGP4

EPOCH          = 2020-09-08T14:26:26.976768
MEAN_MOTION    = 15.88100276
ECCENTRICITY   = .0066045
INCLINATION    = 52.9995
RA_OF_ASC_NODE = 335.0923
ARG_OF_PERICENTER = 117.4856
MEAN_ANOMALY   = 243.2902

EPHEMERIS_TYPE = 0
CLASSIFICATION_TYPE = U
NORAD_CAT_ID   = 46180
ELEMENT_SET_NO = 999
REV_AT_EPOCH   = 297
BSTAR          = .98933E-4
MEAN_MOTION_DOT = 2.9921E-4
MEAN_MOTION_DDOT = .11404E-4

CCSDS_OMM_VERS = 2.0
CREATION_DATE  = 
ORIGINATOR     = 

OBJECT_NAME    = 2020-058A
OBJECT_ID      = 2020-058A
CENTER_NAME    = EARTH
REF_FRAME      = TEME
TIME_SYSTEM    = UTC
MEAN_ELEMENT_THEORY = SGP/SGP4

EPOCH          = 2020-09-09T05:25:18.787296
MEAN_MOTION    = 15.23941956
ECCENTRICITY   = .0016740
INCLINATION    = 97.5023
RA_OF_ASC_NODE = 300.7399
ARG_OF_PERICENTER = 202.9560
MEAN_ANOMALY   = 197.4716

EPHEMERIS_TYPE = 0
CLASSIFICATION_TYPE = U
NORAD_CAT_ID   = 46232
ELEMENT_SET_NO = 999
REV_AT_EPOCH   = 260
BSTAR          = .00000E+0
MEAN_MOTION_DOT = -7.4E-7
MEAN_MOTION_DDOT = 0

CCSDS_OMM_VERS = 2.0
CREATION_DATE  = 
ORIGINATOR     = 

OBJECT_NAME    = 2020-058B
OBJECT_ID      = 2020-058B
CENTER_NAME    = EARTH
REF_FRAME      = TEME
TIME_SYSTEM    = UTC
MEAN_ELEMENT_THEORY = SGP/SGP4

EPOCH          = 2020-09-09T05:33:37.248768
MEAN_MOTION    = 15.24056233
ECCENTRICITY   = .0015554
INCLINATION    = 97.5022
RA_OF_ASC_NODE = 300.7506
ARG_OF_PERICENTER = 205.6279
MEAN_ANOMALY   = 239.1018

EPHEMERIS_TYPE = 0
CLASSIFICATION_TYPE = U
NORAD_CAT_ID   = 46233
ELEMENT_SET_NO = 999
REV_AT_EPOCH   = 259
BSTAR          = .49108E-4
MEAN_MOTION_DOT = 1.121E-5
MEAN_MOTION_DDOT = 0

CCSDS_OMM_VERS = 2.0
CREATION_DATE  = 
ORIGINATOR     = 

OBJECT_NAME    = 2020-058C
OBJECT_ID      = 2020-058C
CENTER_NAME    = EARTH
REF_FRAME      = TEME
TIME_SYSTEM    = UTC
MEAN_ELEMENT_THEORY = SGP/SGP4

EPOCH          = 2020-09-09T13:31:26.044896
MEAN_MOTION    = 15.24083685
ECCENTRICITY   = .0015582
INCLINATION    = 97.5019
RA_OF_ASC_NODE = 301.0833
ARG_OF_PERICENTER = 204.1880
MEAN_ANOMALY   = 260.1588

EPHEMERIS_TYPE = 0
CLASSIFICATION_TYPE = U
NORAD_CAT_ID   = 46234
ELEMENT_SET_NO = 999
REV_AT_EPOCH   = 264
BSTAR          = .11738E-3
MEAN_MOTION_DOT = 2.785E-5
MEAN_MOTION_DDOT = 0

